API VERSION: 1.2
API SOURCE: NASA/JPL Horizons API



*******************************************************************************
Ephemeris / API_USER Wed Apr 15 12:10:56 2026 Pasadena, USA      / Horizons
*******************************************************************************
Target body name: Venus (299)                     {source: DE441}
Center body name: Sun (10)                        {source: DE441}
Center-site name: BODY CENTER
*******************************************************************************
Start time      : A.D. 2300-Jan-01 00:00:00.0000 TDB
Stop  time      : A.D. 2399-Dec-18 00:00:00.0000 TDB
Step-size       : 43200 minutes
*******************************************************************************
Center geodetic : 0.0, 0.0, 0.0                   {E-lon(deg),Lat(deg),Alt(km)}
Center cylindric: 0.0, 0.0, 0.0                   {E-lon(deg),Dxy(km),Dz(km)}
Center radii    : 695700.0, 695700.0, 695700.0 km {Equator_a, b, pole_c}
Output units    : AU-D
Calendar mode   : Mixed Julian/Gregorian
Output type     : GEOMETRIC cartesian states
Output format   : 3 (position, velocity, LT, range, range-rate)
Reference frame : Ecliptic of J2000.0
*******************************************************************************
            JDTDB,            Calendar Date (TDB),                      X,                      Y,                      Z,                     VX,                     VY,                     VZ,                     LT,                     RG,                     RR,
**************************************************************************************************************************************************************************************************************************************************************************
$$SOE
2580017.500000000, A.D. 2351-Oct-01 00:00:00.0000, -1.469771929075676E-02,  7.194169834012973E-01,  1.137433951538001E-02, -2.028949080913750E-02, -5.198652007364394E-04,  1.157476022080328E-03,  4.156392183443667E-03,  7.196569978524378E-01, -8.702074593154271E-05,
2580047.500000000, A.D. 2351-Oct-31 00:00:00.0000, -5.482381025548870E-01,  4.629493488680628E-01,  3.825784169523488E-02, -1.312444455473208E-02, -1.555578688283737E-02,  5.259487394056592E-04,  4.150146093177699E-03,  7.185755208476864E-01,  1.934498802410207E-05,
2580077.500000000, A.D. 2351-Nov-30 00:00:00.0000, -7.117273320281752E-01, -1.062042190796858E-01,  3.931494154936078E-02,  2.859124522237245E-03, -2.009276118182447E-02, -4.582857946675807E-04,  4.162305093164683E-03,  7.206807864341187E-01,  1.123957577564655E-04,
2580107.500000000, A.D. 2351-Dec-30 00:00:00.0000, -3.982747163324262E-01, -6.050964824070695E-01,  1.401308028673202E-02,  1.675662537985620E-02, -1.121057296867148E-02, -1.126307542495536E-03,  4.184604643737991E-03,  7.245418339269348E-01,  1.296750675253093E-04,
2580137.500000000, A.D. 2352-Jan-29 00:00:00.0000,  1.790658543500875E-01, -7.049103979206097E-01, -2.060047069026023E-02,  1.946999473093203E-02,  4.912676652039684E-03, -1.046112271856462E-03,  4.202211052039017E-03,  7.275902890249287E-01,  6.179960468799408E-05,
2580167.500000000, A.D. 2352-Feb-28 00:00:00.0000,  6.399223101751904E-01, -3.442488377712623E-01, -4.178493060642672E-02,  9.466651316703538E-03,  1.772929300457965E-02, -2.840878194393098E-04,  4.203664134256361E-03,  7.278418824116961E-01, -4.602172822534823E-05,
2580197.500000000, A.D. 2352-Mar-29 00:00:00.0000,  6.830781724511714E-01,  2.407134419443679E-01, -3.570065681494500E-02, -6.788342246182476E-03,  1.898786456001325E-02,  6.677399038384261E-04,  4.188000694943933E-03,  7.251298419655305E-01, -1.243541914994080E-04,
2580227.500000000, A.D. 2352-Apr-28 00:00:00.0000,  2.763879499317909E-01,  6.661259966841967E-01, -6.120472057012586E-03, -1.874666186650619E-02,  7.658162638113163E-03,  1.188577364123853E-03,  4.165392560639208E-03,  7.212153648558891E-01, -1.210801656000287E-04,
2580257.500000000, A.D. 2352-May-28 00:00:00.0000, -3.142095832916943E-01,  6.457922351691248E-01,  2.749547914256668E-02, -1.825446302103434E-02, -8.961125396342395E-03,  9.170475105772411E-04,  4.150871391813039E-03,  7.187011024134815E-01, -3.629230495752611E-05,
2580287.500000000, A.D. 2352-Jun-27 00:00:00.0000, -6.924996619023465E-01,  1.897762316715455E-01,  4.254285533705895E-02, -5.444923055223037E-03, -1.959698475533361E-02,  2.580778548157472E-05,  4.154282979905837E-03,  7.192918005806449E-01,  7.321561663306595E-05,
2580317.500000000, A.D. 2352-Jul-27 00:00:00.0000, -6.046297012184746E-01, -3.945977473862793E-01,  2.894329223900135E-02,  1.091433834760759E-02, -1.703096636316598E-02, -8.760210588159208E-04,  4.173275297225050E-03,  7.225802183865124E-01,  1.327089956970663E-04,
2580347.500000000, A.D. 2352-Aug-26 00:00:00.0000, -1.139556991128362E-01, -7.173426016199315E-01, -3.956599465519026E-03,  1.984241817707818E-02, -3.250664420955830E-03, -1.186979475963325E-03,  4.195038363860128E-03,  7.263483765649081E-01,  1.037791809768751E-04,
2580377.500000000, A.D. 2352-Sep-25 00:00:00.0000,  4.522752375087613E-01, -5.695855019119418E-01, -3.430798550551135E-02,  1.570888767120304E-02,  1.250721953608270E-02, -7.189587009286402E-04,  4.205265798623127E-03,  7.281192020001475E-01,  7.520760590817537E-06,
2580407.500000000, A.D. 2352-Oct-25 00:00:00.0000,  7.237554873046131E-01, -5.053408775407165E-02, -4.229909456124836E-02,  1.321193427098771E-03,  2.008617917392637E-02,  2.181572231715623E-04,  4.197355365888689E-03,  7.267495530300488E-01, -9.362730406112626E-05,
2580437.500000000, A.D. 2352-Nov-24 00:00:00.0000,  5.210497907517746E-01,  5.009023192112558E-01, -2.258725042235329E-02, -1.407708214374502E-02,  1.449591576788103E-02,  1.020534333573633E-03,  4.176407461122551E-03,  7.231225357540207E-01, -1.339661508782726E-04,
2580467.500000000, A.D. 2352-Dec-24 00:00:00.0000, -2.686253408492477E-02,  7.190261837771852E-01,  1.206809499810481E-02, -2.027919795195943E-02, -8.618271737392598E-04,  1.151855880182671E-03,  4.156230441086969E-03,  7.196289930314991E-01, -8.480057364910700E-05,
2580497.500000000, A.D. 2353-Jan-23 00:00:00.0000, -5.560282253403247E-01,  4.536140404056982E-01,  3.856824985655555E-02, -1.286102948779958E-02, -1.577326158367766E-02,  5.075879054998384E-04,  4.150426654220185E-03,  7.186240984863302E-01,  2.184627818539811E-05,
2580527.500000000, A.D. 2353-Feb-22 00:00:00.0000, -7.099623200086083E-01, -1.181376086787458E-01,  3.903721601635731E-02,  3.193402398274029E-03, -2.003904367325544E-02, -4.767309362639363E-04,  4.162890467781452E-03,  7.207821409071161E-01,  1.131535747048426E-04,
2580557.500000000, A.D. 2353-Mar-24 00:00:00.0000, -3.883001247662390E-01, -6.116624118457684E-01,  1.334203954542572E-02,  1.693816109792930E-02, -1.092907587307377E-02, -1.132604014043472E-03,  4.185102953404815E-03,  7.246281135711551E-01,  1.279326469015324E-04,
2580587.500000000, A.D. 2353-Apr-23 00:00:00.0000,  1.905791396501749E-01, -7.018747309304640E-01, -2.121842542567063E-02,  1.938618649303246E-02,  5.234461816546271E-03, -1.036539899569305E-03,  4.202255262904559E-03,  7.275979438990032E-01,  5.863129328940412E-05,
2580617.500000000, A.D. 2353-May-23 00:00:00.0000,  6.454354655865787E-01, -3.336031144177233E-01, -4.194516792565287E-02,  9.172882674967230E-03,  1.788585626999400E-02, -2.648648016626970E-04,  4.203202163448276E-03,  7.277618946458240E-01, -4.831766719938497E-05,
2580647.500000000, A.D. 2353-Jun-22 00:00:00.0000,  6.788693261017059E-01,  2.520680770749400E-01, -3.529071530166995E-02, -7.105262785866442E-03,  1.887434272353385E-02,  6.843102798819380E-04,  4.187339660589319E-03,  7.250153874150160E-01, -1.242394074263626E-04,
2580677.500000000, A.D. 2353-Jul-22 00:00:00.0000,  2.650576301540365E-01,  6.706404289706512E-01, -5.401495154043174E-03, -1.887482413738606E-02,  7.341829711165041E-03,  1.191286374220441E-03,  4.164958926636647E-03,  7.211402834558005E-01, -1.187328707691555E-04,
2580707.500000000, A.D. 2353-Aug-21 00:00:00.0000, -3.251473886739369E-01,  6.403436122930614E-01,  2.804475871633537E-02, -1.810093800418246E-02, -9.267967571498486E-03,  9.036770927782392E-04,  4.150935679908243E-03,  7.187122335521110E-01, -3.320898351365759E-05,
2580737.500000000, A.D. 2353-Sep-20 00:00:00.0000, -6.956994624109036E-01,  1.780514222659249E-01,  4.255388271258684E-02, -5.114896793240306E-03, -1.968317718220357E-02,  5.529872923049490E-06,  4.154805622225546E-03,  7.193822932931111E-01,  7.513192277412578E-05,
2580767.500000000, A.D. 2353-Oct-20 00:00:00.0000, -5.980909064527681E-01, -4.046807488295496E-01,  2.841772604216224E-02,  1.119464369277426E-02, -1.684358707899916E-02, -8.893975862830750E-04,  4.173933205713349E-03,  7.226941317100521E-01,  1.322636746783294E-04,
2580797.500000000, A.D. 2353-Nov-19 00:00:00.0000, -1.021863812443329E-01, -7.191757287262270E-01, -4.661595744203547E-03,  1.989188597050184E-02, -2.920909009937178E-03, -1.184959643260341E-03,  4.195418233399767E-03,  7.264141489368130E-01,  1.011693195289643E-04,
2580827.500000000, A.D. 2353-Dec-19 00:00:00.0000,  4.615180945548221E-01, -5.620627250459088E-01, -3.472933486321944E-02,  1.550106313011604E-02,  1.276592562943498E-02, -7.031694473218946E-04,  4.205115136947890E-03,  7.280931157397303E-01,  4.382378440584575E-06,
2580857.500000000, A.D. 2354-Jan-18 00:00:00.0000,  7.244014784808561E-01, -3.853773975965463E-02, -4.215923724774296E-02,  9.881745095433455E-04,  2.010789324283012E-02,  2.376590419880209E-04,  4.196779752519323E-03,  7.266498886646476E-01, -9.509009250525510E-05,
2580887.500000000, A.D. 2354-Feb-17 00:00:00.0000,  5.125160696963001E-01,  5.095068637032072E-01, -2.196879209235207E-02, -1.431946129287430E-02,  1.425973885020488E-02,  1.031003111912005E-03,  4.175793988908801E-03,  7.230163163329153E-01, -1.330109625983230E-04,
